{
  "type": "FeatureCollection",
  "properties": {
    "source": "OpenStreetMap relation 12429517",
    "retrieved_via": "Nominatim",
    "role": "reference overlay only; never used as a hydrologic mask"
  },
  "features": [
    {
      "type": "Feature",
      "properties": {
        "name": "Makkah Al Mukarramah Governorate",
        "source": "OpenStreetMap relation 12429517",
        "status": "administrative_reference"
      },
      "geometry": {
        "type": "Polygon",
        "coordinates": [
          [
            [
              39.5058552,
              21.2352231
            ],
            [
              39.5153731,
              21.2149976
            ],
            [
              39.5308396,
              21.1900133
            ],
            [
              39.5701007,
              21.1578906
            ],
            [
              39.5843774,
              21.1388549
            ],
            [
              39.6034131,
              21.1281473
            ],
            [
              39.6402948,
              21.1221987
            ],
            [
              39.6617099,
              21.1269576
            ],
            [
              39.6759867,
              21.1198192
            ],
            [
              39.6866943,
              21.1317165
            ],
            [
              39.7330937,
              21.1567009
            ],
            [
              39.7438013,
              21.1483727
            ],
            [
              39.7509397,
              21.1352857
            ],
            [
              39.7556986,
              21.1329062
            ],
            [
              39.8299378,
              21.1536076
            ],
            [
              39.8699128,
              21.1628875
            ],
            [
              39.877765,
              21.1664566
            ],
            [
              39.8884726,
              21.1757365
            ],
            [
              39.9027493,
              21.1835888
            ],
            [
              39.9238075,
              21.1992932
            ],
            [
              39.9280906,
              21.2014347
            ],
            [
              39.9327305,
              21.200007
            ],
            [
              39.9495057,
              21.2235637
            ],
            [
              39.9559303,
              21.2282037
            ],
            [
              39.9537888,
              21.2317728
            ],
            [
              39.9191676,
              21.2385543
            ],
            [
              39.9180968,
              21.2506896
            ],
            [
              39.9213091,
              21.2553295
            ],
            [
              39.9459365,
              21.2724616
            ],
            [
              39.9534318,
              21.2796
            ],
            [
              39.9634256,
              21.2910214
            ],
            [
              39.9719916,
              21.3052982
            ],
            [
              39.9802008,
              21.310652
            ],
            [
              39.9851976,
              21.3117227
            ],
            [
              39.9966191,
              21.2992306
            ],
            [
              40.0068507,
              21.2811705
            ],
            [
              40.0201757,
              21.2554723
            ],
            [
              40.0296936,
              21.2297741
            ],
            [
              40.02779,
              21.2202563
            ],
            [
              40.0373078,
              21.2116902
            ],
            [
              40.0458739,
              21.2116902
            ],
            [
              40.0534882,
              21.2078831
            ],
            [
              40.0601507,
              21.2088348
            ],
            [
              40.0687167,
              21.2154973
            ],
            [
              40.0772828,
              21.2154973
            ],
            [
              40.0953667,
              21.2050277
            ],
            [
              40.1124988,
              21.1926545
            ],
            [
              40.1201131,
              21.1926545
            ],
            [
              40.1305827,
              21.1974134
            ],
            [
              40.1810273,
              21.1869438
            ],
            [
              40.1905741,
              21.181207
            ],
            [
              40.19295,
              21.1817901
            ],
            [
              40.20561,
              21.1769601
            ],
            [
              40.2126,
              21.1753001
            ],
            [
              40.21993,
              21.1758001
            ],
            [
              40.22793,
              21.1816301
            ],
            [
              40.23409,
              21.1897901
            ],
            [
              40.24208,
              21.1969501
            ],
            [
              40.24258,
              21.1996101
            ],
            [
              40.23975,
              21.2179401
            ],
            [
              40.23176,
              21.2276001
            ],
            [
              40.22593,
              21.2420901
            ],
            [
              40.22409,
              21.2559101
            ],
            [
              40.22493,
              21.2627401
            ],
            [
              40.23109,
              21.2675701
            ],
            [
              40.23527,
              21.2739001
            ],
            [
              40.23775,
              21.2848901
            ],
            [
              40.24741,
              21.2893901
            ],
            [
              40.25758,
              21.2895601
            ],
            [
              40.2644,
              21.2918901
            ],
            [
              40.26757,
              21.2932201
            ],
            [
              40.26973,
              21.2982201
            ],
            [
              40.26607,
              21.3057201
            ],
            [
              40.24991,
              21.3195401
            ],
            [
              40.24292,
              21.3318701
            ],
            [
              40.24308,
              21.3353601
            ],
            [
              40.24758,
              21.3421901
            ],
            [
              40.25091,
              21.3525201
            ],
            [
              40.25791,
              21.3561801
            ],
            [
              40.26207,
              21.3658401
            ],
            [
              40.25674,
              21.3708301
            ],
            [
              40.23042,
              21.3783401
            ],
            [
              40.22576,
              21.3818301
            ],
            [
              40.22326,
              21.3875001
            ],
            [
              40.22459,
              21.3949901
            ],
            [
              40.23009,
              21.4069801
            ],
            [
              40.22926,
              21.4118201
            ],
            [
              40.22608,
              21.4161501
            ],
            [
              40.22593,
              21.4224701
            ],
            [
              40.22093,
              21.4328001
            ],
            [
              40.22093,
              21.4373001
            ],
            [
              40.22926,
              21.4557901
            ],
            [
              40.22393,
              21.4611101
            ],
            [
              40.21094,
              21.4686101
            ],
            [
              40.19911,
              21.4727801
            ],
            [
              40.19128,
              21.4786101
            ],
            [
              40.18979,
              21.4834401
            ],
            [
              40.20094,
              21.5042601
            ],
            [
              40.21676,
              21.5227501
            ],
            [
              40.22375,
              21.5259201
            ],
            [
              40.23709,
              21.5280801
            ],
            [
              40.24425,
              21.5319101
            ],
            [
              40.25674,
              21.5320701
            ],
            [
              40.28905,
              21.5257401
            ],
            [
              40.29771,
              21.5195801
            ],
            [
              40.30555,
              21.5107501
            ],
            [
              40.32037,
              21.5089201
            ],
            [
              40.3237,
              21.5097401
            ],
            [
              40.32503,
              21.5117501
            ],
            [
              40.32687,
              21.5197501
            ],
            [
              40.3278616,
              21.5288996
            ],
            [
              40.3266938,
              21.5393414
            ],
            [
              40.3331026,
              21.5398845
            ],
            [
              40.3365785,
              21.5384724
            ],
            [
              40.3376647,
              21.5281532
            ],
            [
              40.3410321,
              21.5246772
            ],
            [
              40.3384251,
              21.5193547
            ],
            [
              40.34019,
              21.5089201
            ],
            [
              40.34818,
              21.5079201
            ],
            [
              40.36834,
              21.5155801
            ],
            [
              40.36884,
              21.5232401
            ],
            [
              40.36317,
              21.5340601
            ],
            [
              40.35336,
              21.5457301
            ],
            [
              40.34985,
              21.5533901
            ],
            [
              40.34402,
              21.5792101
            ],
            [
              40.34735,
              21.5992001
            ],
            [
              40.35285,
              21.6121901
            ],
            [
              40.35185,
              21.6220201
            ],
            [
              40.35402,
              21.6245201
            ],
            [
              40.35951,
              21.6266801
            ],
            [
              40.369,
              21.6233501
            ],
            [
              40.3815,
              21.6253501
            ],
            [
              40.38566,
              21.6270101
            ],
            [
              40.38899,
              21.6311801
            ],
            [
              40.38949,
              21.6366701
            ],
            [
              40.38416,
              21.6435001
            ],
            [
              40.38333,
              21.6500001
            ],
            [
              40.39282,
              21.6604901
            ],
            [
              40.39399,
              21.6639901
            ],
            [
              40.38999,
              21.6773101
            ],
            [
              40.39149,
              21.6886401
            ],
            [
              40.38882,
              21.6989701
            ],
            [
              40.39749,
              21.7093001
            ],
            [
              40.40298,
              21.7221201
            ],
            [
              40.40248,
              21.7546001
            ],
            [
              40.40881,
              21.7606001
            ],
            [
              40.41714,
              21.7640901
            ],
            [
              40.42947,
              21.7591001
            ],
            [
              40.43979,
              21.7597501
            ],
            [
              40.44828,
              21.7664301
            ],
            [
              40.45195,
              21.7655901
            ],
            [
              40.45662,
              21.7592601
            ],
            [
              40.46378,
              21.7599301
            ],
            [
              40.46677,
              21.7619301
            ],
            [
              40.47444,
              21.7737501
            ],
            [
              40.47561,
              21.7807501
            ],
            [
              40.4691,
              21.7917401
            ],
            [
              40.46811,
              21.8009001
            ],
            [
              40.43846,
              21.8045701
            ],
            [
              40.41914,
              21.8085701
            ],
            [
              40.40865,
              21.8132301
            ],
            [
              40.39382,
              21.8142301
            ],
            [
              40.3825,
              21.8183901
            ],
            [
              40.37367,
              21.8190601
            ],
            [
              40.33951,
              21.8422101
            ],
            [
              40.32836,
              21.8478801
            ],
            [
              40.31937,
              21.8475401
            ],
            [
              40.30105,
              21.8430401
            ],
            [
              40.28423,
              21.8332201
            ],
            [
              40.2739,
              21.8240601
            ],
            [
              40.25908,
              21.8014101
            ],
            [
              40.24625,
              21.7887501
            ],
            [
              40.21161,
              21.7774201
            ],
            [
              40.19162,
              21.7509401
            ],
            [
              40.16896,
              21.7396101
            ],
            [
              40.15313,
              21.7346101
            ],
            [
              40.13582,
              21.7311201
            ],
            [
              40.12466,
              21.7306201
            ],
            [
              40.11167,
              21.7317801
            ],
            [
              40.09684,
              21.7374401
            ],
            [
              40.08418,
              21.7402801
            ],
            [
              40.06402,
              21.7406101
            ],
            [
              40.05503,
              21.7381101
            ],
            [
              40.04571,
              21.7386101
            ],
            [
              40.04087,
              21.7362801
            ],
            [
              40.03588,
              21.7291201
            ],
            [
              40.02056,
              21.7192901
            ],
            [
              39.98108,
              21.7112901
            ],
            [
              39.97425,
              21.7091301
            ],
            [
              39.96692,
              21.7043001
            ],
            [
              39.96109,
              21.6916401
            ],
            [
              39.95077,
              21.6873101
            ],
            [
              39.9496,
              21.6774801
            ],
            [
              39.95743,
              21.6616601
            ],
            [
              39.9586,
              21.6471701
            ],
            [
              39.96059,
              21.6415001
            ],
            [
              39.96476,
              21.6361701
            ],
            [
              39.97825,
              21.6266801
            ],
            [
              39.98361,
              21.6199501
            ],
            [
              39.98547,
              21.6099801
            ],
            [
              39.98093,
              21.6053701
            ],
            [
              39.97567,
              21.6053701
            ],
            [
              39.96886,
              21.6142801
            ],
            [
              39.96059,
              21.6160601
            ],
            [
              39.94144,
              21.6068601
            ],
            [
              39.93478,
              21.5992001
            ],
            [
              39.92695,
              21.5957001
            ],
            [
              39.91196,
              21.5927001
            ],
            [
              39.88847,
              21.5922001
            ],
            [
              39.85299,
              21.5973601
            ],
            [
              39.83056,
              21.6071501
            ],
            [
              39.80719,
              21.6133601
            ],
            [
              39.7967,
              21.6141901
            ],
            [
              39.79319,
              21.6125201
            ],
            [
              39.7912,
              21.6108601
            ],
            [
              39.79187,
              21.6048601
            ],
            [
              39.79353,
              21.6020301
            ],
            [
              39.80219,
              21.5958701
            ],
            [
              39.81259,
              21.5943101
            ],
            [
              39.81858,
              21.5914601
            ],
            [
              39.83512,
              21.5760501
            ],
            [
              39.86016,
              21.5678801
            ],
            [
              39.86132,
              21.5628901
            ],
            [
              39.85533,
              21.5568901
            ],
            [
              39.85633,
              21.5502201
            ],
            [
              39.85216,
              21.5363901
            ],
            [
              39.83884,
              21.5245801
            ],
            [
              39.82834,
              21.5202501
            ],
            [
              39.80935,
              21.5182501
            ],
            [
              39.80103,
              21.5197501
            ],
            [
              39.79603,
              21.5217501
            ],
            [
              39.78887,
              21.5287401
            ],
            [
              39.78354,
              21.5424001
            ],
            [
              39.77721,
              21.5530601
            ],
            [
              39.77621,
              21.5603901
            ],
            [
              39.76439,
              21.5742101
            ],
            [
              39.75889,
              21.5742101
            ],
            [
              39.74623,
              21.5698801
            ],
            [
              39.73507,
              21.5693801
            ],
            [
              39.72557,
              21.5657201
            ],
            [
              39.72174,
              21.5587201
            ],
            [
              39.72458,
              21.5477301
            ],
            [
              39.72408,
              21.5427301
            ],
            [
              39.70808,
              21.5275801
            ],
            [
              39.6921,
              21.5094201
            ],
            [
              39.66411,
              21.4865901
            ],
            [
              39.65229,
              21.4736101
            ],
            [
              39.64495,
              21.4622101
            ],
            [
              39.6436703,
              21.4630044
            ],
            [
              39.6397627,
              21.4551894
            ],
            [
              39.6332192,
              21.4367485
            ],
            [
              39.6314346,
              21.4242564
            ],
            [
              39.6260808,
              21.4129539
            ],
            [
              39.6248911,
              21.3885645
            ],
            [
              39.6266757,
              21.3814261
            ],
            [
              39.6218123,
              21.3521221
            ],
            [
              39.62356,
              21.3449252
            ],
            [
              39.6225723,
              21.3394928
            ],
            [
              39.6146707,
              21.3345543
            ],
            [
              39.6117076,
              21.3266527
            ],
            [
              39.6072629,
              21.3207265
            ],
            [
              39.5748596,
              21.3161247
            ],
            [
              39.5570136,
              21.3101761
            ],
            [
              39.5379779,
              21.2958993
            ],
            [
              39.5248909,
              21.2828123
            ],
            [
              39.5213217,
              21.2613971
            ],
            [
              39.5094244,
              21.2435512
            ],
            [
              39.5058552,
              21.2352231
            ]
          ]
        ]
      }
    }
  ]
}
