{
  "type": "FeatureCollection",
  "properties": {
    "role": "hydrologic study boundary; derived, not administrative"
  },
  "features": [
    {
      "type": "Feature",
      "properties": {
        "name": "Wadi Ibrahim watershed",
        "boundary_type": "reverse_d8_watershed",
        "source": "HydroSim authoritative sink-filled DEM"
      },
      "geometry": {
        "type": "MultiPolygon",
        "coordinates": [
          [
            [
              [
                39.793919,
                21.4378023
              ],
              [
                39.7942099,
                21.4380719
              ],
              [
                39.7942085,
                21.4378009
              ],
              [
                39.793919,
                21.4378023
              ]
            ]
          ],
          [
            [
              [
                39.7936237,
                21.4367195
              ],
              [
                39.7950799,
                21.4383388
              ],
              [
                39.7950843,
                21.4391519
              ],
              [
                39.7933474,
                21.4391601
              ],
              [
                39.7933561,
                21.4407863
              ],
              [
                39.7922026,
                21.4416049
              ],
              [
                39.7927845,
                21.4421442
              ],
              [
                39.7925067,
                21.4443138
              ],
              [
                39.7942569,
                21.4467448
              ],
              [
                39.7968712,
                21.4483586
              ],
              [
                39.797462,
                21.4505241
              ],
              [
                39.7966009,
                21.4518834
              ],
              [
                39.7997885,
                21.4524102
              ],
              [
                39.7995063,
                21.4537668
              ],
              [
                39.8000898,
                21.4545771
              ],
              [
                39.7986481,
                21.4556681
              ],
              [
                39.8015552,
                21.4578225
              ],
              [
                39.8021416,
                21.4591749
              ],
              [
                39.8001312,
                21.4621659
              ],
              [
                39.8015878,
                21.4637851
              ],
              [
                39.8013101,
                21.4659547
              ],
              [
                39.8021817,
                21.4664926
              ],
              [
                39.8018981,
                21.4675781
              ],
              [
                39.8036413,
                21.4686539
              ],
              [
                39.8050875,
                21.4683759
              ],
              [
                39.805671,
                21.4691862
              ],
              [
                39.8100142,
                21.4691652
              ],
              [
                39.8120455,
                21.4699685
              ],
              [
                39.8137964,
                21.4723993
              ],
              [
                39.8152471,
                21.4729343
              ],
              [
                39.8152532,
                21.4740184
              ],
              [
                39.8175756,
                21.4750912
              ],
              [
                39.8173012,
                21.4778028
              ],
              [
                39.8184701,
                21.4796944
              ],
              [
                39.8181941,
                21.482135
              ],
              [
                39.8187763,
                21.4826742
              ],
              [
                39.8196405,
                21.4818569
              ],
              [
                39.8210883,
                21.4818498
              ],
              [
                39.8219646,
                21.4832006
              ],
              [
                39.8237051,
                21.4837341
              ],
              [
                39.8245799,
                21.484814
              ],
              [
                39.8309521,
                21.4850534
              ],
              [
                39.8356023,
                21.4880116
              ],
              [
                39.836471,
                21.4880073
              ],
              [
                39.8364912,
                21.4915306
              ],
              [
                39.838811,
                21.492061
              ],
              [
                39.839401,
                21.4939553
              ],
              [
                39.8397046,
                21.496393
              ],
              [
                39.8385509,
                21.4972119
              ],
              [
                39.8385587,
                21.4985671
              ],
              [
                39.8434819,
                21.4985423
              ],
              [
                39.8481327,
                21.5015001
              ],
              [
                39.8513153,
                21.5009418
              ],
              [
                39.8539343,
                21.5030967
              ],
              [
                39.8582785,
                21.5030744
              ],
              [
                39.8602898,
                21.5003538
              ],
              [
                39.8614514,
                21.5008898
              ],
              [
                39.8620274,
                21.5003448
              ],
              [
                39.8628978,
                21.5006114
              ],
              [
                39.8646434,
                21.5019575
              ],
              [
                39.8643602,
                21.5030431
              ],
              [
                39.8663971,
                21.5046587
              ],
              [
                39.8675556,
                21.5046527
              ],
              [
                39.8678516,
                21.5057353
              ],
              [
                39.8687221,
                21.5060018
              ],
              [
                39.8710809,
                21.5130363
              ],
              [
                39.8728316,
                21.5151954
              ],
              [
                39.8745678,
                21.5149152
              ],
              [
                39.8748607,
                21.5154558
              ],
              [
                39.8760176,
                21.5151787
              ],
              [
                39.8766017,
                21.5159887
              ],
              [
                39.8783395,
                21.5159796
              ],
              [
                39.8789367,
                21.5189577
              ],
              [
                39.8806794,
                21.5197616
              ],
              [
                39.8815451,
                21.519215
              ],
              [
                39.8815385,
                21.5181309
              ],
              [
                39.8829867,
                21.5181233
              ],
              [
                39.8835611,
                21.5173071
              ],
              [
                39.885888,
                21.518921
              ],
              [
                39.8893637,
                21.5189025
              ],
              [
                39.8908234,
                21.5207919
              ],
              [
                39.8931455,
                21.5215926
              ],
              [
                39.8934484,
                21.5237592
              ],
              [
                39.8957739,
                21.5251019
              ],
              [
                39.8977914,
                21.5234649
              ],
              [
                39.9012672,
                21.5234461
              ],
              [
                39.9012739,
                21.5245302
              ],
              [
                39.9021445,
                21.5247965
              ],
              [
                39.9041972,
                21.5288508
              ],
              [
                39.9059267,
                21.5274863
              ],
              [
                39.907087,
                21.527751
              ],
              [
                39.9070769,
                21.5261249
              ],
              [
                39.9085268,
                21.5263881
              ],
              [
                39.9120229,
                21.5296213
              ],
              [
                39.9126226,
                21.5328704
              ],
              [
                39.9160951,
                21.5323093
              ],
              [
                39.9184175,
                21.5331096
              ],
              [
                39.9187004,
                21.5320239
              ],
              [
                39.9198539,
                21.5312045
              ],
              [
                39.9215953,
                21.5317369
              ],
              [
                39.9233264,
                21.5306433
              ],
              [
                39.9256453,
                21.5309014
              ],
              [
                39.9256419,
                21.5303594
              ],
              [
                39.9296867,
                21.5287108
              ],
              [
                39.9331643,
                21.5289624
              ],
              [
                39.9343299,
                21.53004
              ],
              [
                39.9369402,
                21.5305674
              ],
              [
                39.9375248,
                21.5313772
              ],
              [
                39.938392,
                21.5311013
              ],
              [
                39.9389591,
                21.5292009
              ],
              [
                39.938078,
                21.5273087
              ],
              [
                39.9406691,
                21.5248549
              ],
              [
                39.9400724,
                21.522148
              ],
              [
                39.9392,
                21.5216108
              ],
              [
                39.9391913,
                21.5202557
              ],
              [
                39.9383154,
                21.5191766
              ],
              [
                39.9385963,
                21.5178198
              ],
              [
                39.9368481,
                21.5162035
              ],
              [
                39.9368429,
                21.5153905
              ],
              [
                39.9310211,
                21.5108156
              ],
              [
                39.9310107,
                21.5091895
              ],
              [
                39.9269544,
                21.508941
              ],
              [
                39.9252218,
                21.5097637
              ],
              [
                39.9240582,
                21.5089571
              ],
              [
                39.9272234,
                21.5056872
              ],
              [
                39.9280698,
                21.5021591
              ],
              [
                39.9321173,
                21.5010525
              ],
              [
                39.9326879,
                21.4996942
              ],
              [
                39.9341307,
                21.498873
              ],
              [
                39.9358474,
                21.4956111
              ],
              [
                39.9340943,
                21.4931817
              ],
              [
                39.9314829,
                21.4923832
              ],
              [
                39.9308831,
                21.4891342
              ],
              [
                39.9300109,
                21.488597
              ],
              [
                39.9311589,
                21.4869644
              ],
              [
                39.9305677,
                21.4850705
              ],
              [
                39.9323068,
                21.4853319
              ],
              [
                39.9328807,
                21.4845156
              ],
              [
                39.9337494,
                21.4845107
              ],
              [
                39.9314191,
                21.4823555
              ],
              [
                39.9314105,
                21.4810004
              ],
              [
                39.933134,
                21.4788226
              ],
              [
                39.9342923,
                21.4788161
              ],
              [
                39.9337097,
                21.4782773
              ],
              [
                39.9339854,
                21.4761076
              ],
              [
                39.9322481,
                21.4761173
              ],
              [
                39.9310848,
                21.4753107
              ],
              [
                39.9281927,
                21.4758688
              ],
              [
                39.9273224,
                21.4756026
              ],
              [
                39.9264434,
                21.4739813
              ],
              [
                39.9232584,
                21.4739989
              ],
              [
                39.9218192,
                21.475362
              ],
              [
                39.9206576,
                21.4748263
              ],
              [
                39.9209335,
                21.4726566
              ],
              [
                39.9217988,
                21.4721098
              ],
              [
                39.9215007,
                21.4707563
              ],
              [
                39.9223693,
                21.4707515
              ],
              [
                39.9232311,
                21.4696626
              ],
              [
                39.9223557,
                21.4685833
              ],
              [
                39.9223454,
                21.4669572
              ],
              [
                39.9261059,
                21.4663944
              ],
              [
                39.9272537,
                21.4647618
              ],
              [
                39.9260836,
                21.4628711
              ],
              [
                39.9272366,
                21.4620517
              ],
              [
                39.9275175,
                21.460695
              ],
              [
                39.9266387,
                21.4590737
              ],
              [
                39.9251928,
                21.4593527
              ],
              [
                39.9246104,
                21.4588138
              ],
              [
                39.9243072,
                21.4566473
              ],
              [
                39.9254618,
                21.4560989
              ],
              [
                39.9251655,
                21.4550164
              ],
              [
                39.9269008,
                21.4547357
              ],
              [
                39.9283381,
                21.4531016
              ],
              [
                39.9295029,
                21.4541793
              ],
              [
                39.9303697,
                21.4539034
              ],
              [
                39.9329529,
                21.4503657
              ],
              [
                39.9352637,
                21.4495397
              ],
              [
                39.9349552,
                21.4465601
              ],
              [
                39.9358219,
                21.4462842
              ],
              [
                39.9358133,
                21.4449291
              ],
              [
                39.9366783,
                21.4443822
              ],
              [
                39.9366471,
                21.4395039
              ],
              [
                39.9343279,
                21.4389748
              ],
              [
                39.9320224,
                21.4406138
              ],
              [
                39.9297066,
                21.4406267
              ],
              [
                39.9276665,
                21.4384698
              ],
              [
                39.9267981,
                21.4384746
              ],
              [
                39.9259365,
                21.4395635
              ],
              [
                39.9239084,
                21.4393036
              ],
              [
                39.9221596,
                21.4374161
              ],
              [
                39.918405,
                21.4387919
              ],
              [
                39.9157811,
                21.4358249
              ],
              [
                39.914332,
                21.4355618
              ],
              [
                39.9114458,
                21.4369327
              ],
              [
                39.9073881,
                21.4361416
              ],
              [
                39.9059508,
                21.4377756
              ],
              [
                39.9056697,
                21.4391323
              ],
              [
                39.9048012,
                21.439137
              ],
              [
                39.9025037,
                21.4421307
              ],
              [
                39.900474,
                21.4415996
              ],
              [
                39.8993211,
                21.4424189
              ],
              [
                39.896987,
                21.43945
              ],
              [
                39.8981382,
                21.4383597
              ],
              [
                39.8972599,
                21.4367383
              ],
              [
                39.8978339,
                21.4359221
              ],
              [
                39.8972516,
                21.4353832
              ],
              [
                39.8949358,
                21.4353956
              ],
              [
                39.8943486,
                21.4340435
              ],
              [
                39.8926036,
                21.4326977
              ],
              [
                39.8925953,
                21.4313426
              ],
              [
                39.8908553,
                21.4308098
              ],
              [
                39.8902796,
                21.4313549
              ],
              [
                39.8870939,
                21.4311008
              ],
              [
                39.8859393,
                21.431649
              ],
              [
                39.885066,
                21.4308405
              ],
              [
                39.8836187,
                21.4308481
              ],
              [
                39.8807289,
                21.4316764
              ],
              [
                39.8801467,
                21.4311374
              ],
              [
                39.8789727,
                21.4284333
              ],
              [
                39.8798199,
                21.4249054
              ],
              [
                39.8760376,
                21.4216728
              ],
              [
                39.8760296,
                21.4203177
              ],
              [
                39.8728473,
                21.4206054
              ],
              [
                39.8719564,
                21.4168155
              ],
              [
                39.8659038,
                21.4211835
              ],
              [
                39.8661965,
                21.421724
              ],
              [
                39.8650451,
                21.4228141
              ],
              [
                39.8624384,
                21.4225565
              ],
              [
                39.8615749,
                21.4233741
              ],
              [
                39.8598397,
                21.423654
              ],
              [
                39.8592704,
                21.4252831
              ],
              [
                39.8569642,
                21.4269211
              ],
              [
                39.8543512,
                21.4255793
              ],
              [
                39.853766,
                21.4244982
              ],
              [
                39.8523187,
                21.4245055
              ],
              [
                39.8514551,
                21.425323
              ],
              [
                39.8485558,
                21.4245246
              ],
              [
                39.8433488,
                21.425093
              ],
              [
                39.8418953,
                21.4240162
              ],
              [
                39.8418766,
                21.4207639
              ],
              [
                39.8407173,
                21.4204986
              ],
              [
                39.8375148,
                21.4172623
              ],
              [
                39.8375087,
                21.4161782
              ],
              [
                39.8357674,
                21.4153738
              ],
              [
                39.8346097,
                21.4153795
              ],
              [
                39.8323095,
                21.4181013
              ],
              [
                39.8308654,
                21.4186506
              ],
              [
                39.8285468,
                21.41812
              ],
              [
                39.827683,
                21.4189373
              ],
              [
                39.824784,
                21.4181385
              ],
              [
                39.8242127,
                21.4194965
              ],
              [
                39.8227701,
                21.4203167
              ],
              [
                39.8190072,
                21.4203352
              ],
              [
                39.8184253,
                21.4197959
              ],
              [
                39.8175675,
                21.4216974
              ],
              [
                39.8187359,
                21.4235889
              ],
              [
                39.818745,
                21.4252151
              ],
              [
                39.8170067,
                21.4249525
              ],
              [
                39.815567,
                21.4263147
              ],
              [
                39.812092,
                21.4260606
              ],
              [
                39.8112161,
                21.4247096
              ],
              [
                39.8094809,
                21.4249891
              ],
              [
                39.8080291,
                21.424183
              ],
              [
                39.8048555,
                21.4260955
              ],
              [
                39.8048629,
                21.4274506
              ],
              [
                39.8031365,
                21.4293562
              ],
              [
                39.8011088,
                21.4290949
              ],
              [
                39.8016744,
                21.4266528
              ],
              [
                39.7993616,
                21.4272059
              ],
              [
                39.7982038,
                21.4272115
              ],
              [
                39.7982008,
                21.4266694
              ],
              [
                39.7976249,
                21.4272142
              ],
              [
                39.7958866,
                21.4269515
              ],
              [
                39.7950256,
                21.4283107
              ],
              [
                39.7935812,
                21.4288597
              ],
              [
                39.79534,
                21.4329169
              ],
              [
                39.7953429,
                21.4334589
              ],
              [
                39.794185,
                21.4334644
              ],
              [
                39.7944804,
                21.4345472
              ],
              [
                39.7933239,
                21.4348237
              ],
              [
                39.7936207,
                21.4361775
              ],
              [
                39.7941997,
                21.4361747
              ],
              [
                39.7936237,
                21.4367195
              ]
            ]
          ],
          [
            [
              [
                39.8244946,
                21.41814
              ],
              [
                39.8247825,
                21.4178675
              ],
              [
                39.8244931,
                21.4178689
              ],
              [
                39.8244946,
                21.41814
              ]
            ]
          ]
        ]
      }
    }
  ]
}
