{
  "type": "FeatureCollection",
  "properties": {
    "role": "hydrologic study boundary; derived, not administrative"
  },
  "features": [
    {
      "type": "Feature",
      "properties": {
        "name": "Makkah contributing hydrologic unit",
        "boundary_type": "reverse_d8_watershed",
        "source": "HydroSim authoritative sink-filled DEM"
      },
      "geometry": {
        "type": "MultiPolygon",
        "coordinates": [
          [
            [
              [
                39.7636603,
                21.4086709
              ],
              [
                39.7595999,
                21.4070631
              ],
              [
                39.7595915,
                21.4054369
              ],
              [
                39.760745,
                21.4046186
              ],
              [
                39.7607394,
                21.4035344
              ],
              [
                39.7595803,
                21.4032686
              ],
              [
                39.7595747,
                21.4021845
              ],
              [
                39.7584185,
                21.4024608
              ],
              [
                39.755804,
                21.4005753
              ],
              [
                39.7549413,
                21.4016634
              ],
              [
                39.752626,
                21.4016738
              ],
              [
                39.7514808,
                21.4041183
              ],
              [
                39.7506125,
                21.4041222
              ],
              [
                39.7503162,
                21.4027683
              ],
              [
                39.7485728,
                21.4014209
              ],
              [
                39.7468445,
                21.4030548
              ],
              [
                39.7456841,
                21.4025179
              ],
              [
                39.7445374,
                21.4046913
              ],
              [
                39.741351,
                21.4041634
              ],
              [
                39.7375899,
                21.404451
              ],
              [
                39.7367162,
                21.4033707
              ],
              [
                39.7355572,
                21.4031047
              ],
              [
                39.7355531,
                21.4022916
              ],
              [
                39.7369948,
                21.4012011
              ],
              [
                39.7358195,
                21.3976828
              ],
              [
                39.7378481,
                21.3982159
              ],
              [
                39.7395736,
                21.39604
              ],
              [
                39.7392788,
                21.3949572
              ],
              [
                39.7387,
                21.3949597
              ],
              [
                39.7392624,
                21.3917048
              ],
              [
                39.7378141,
                21.3914401
              ],
              [
                39.7346118,
                21.3876596
              ],
              [
                39.7342899,
                21.381156
              ],
              [
                39.733411,
                21.3789915
              ],
              [
                39.7322495,
                21.3781835
              ],
              [
                39.73224,
                21.3762862
              ],
              [
                39.7310758,
                21.3749361
              ],
              [
                39.7304783,
                21.3711441
              ],
              [
                39.7278593,
                21.3681741
              ],
              [
                39.7281366,
                21.3657335
              ],
              [
                39.7275526,
                21.3646518
              ],
              [
                39.7243725,
                21.3652077
              ],
              [
                39.7229217,
                21.3644008
              ],
              [
                39.7217551,
                21.3625085
              ],
              [
                39.720019,
                21.362516
              ],
              [
                39.7191457,
                21.3614356
              ],
              [
                39.7182777,
                21.3614393
              ],
              [
                39.7159643,
                21.3617202
              ],
              [
                39.7151002,
                21.362537
              ],
              [
                39.7142467,
                21.3655221
              ],
              [
                39.7130919,
                21.3660691
              ],
              [
                39.7093121,
                21.3622905
              ],
              [
                39.7081547,
                21.3622954
              ],
              [
                39.7069909,
                21.3609451
              ],
              [
                39.7049655,
                21.3609536
              ],
              [
                39.7032178,
                21.3585215
              ],
              [
                39.7014831,
                21.3587998
              ],
              [
                39.70061,
                21.3577193
              ],
              [
                39.6980021,
                21.3569171
              ],
              [
                39.697997,
                21.3558329
              ],
              [
                39.6965465,
                21.3550258
              ],
              [
                39.694525,
                21.3558473
              ],
              [
                39.6927878,
                21.3555834
              ],
              [
                39.6924946,
                21.3547715
              ],
              [
                39.6930707,
                21.354227
              ],
              [
                39.6919109,
                21.3536897
              ],
              [
                39.6919071,
                21.3528766
              ],
              [
                39.6910416,
                21.3534223
              ],
              [
                39.6890075,
                21.3515333
              ],
              [
                39.6872741,
                21.3520825
              ],
              [
                39.6863998,
                21.3507309
              ],
              [
                39.6846652,
                21.351009
              ],
              [
                39.6849494,
                21.3499237
              ],
              [
                39.6834978,
                21.3488454
              ],
              [
                39.6820525,
                21.3491223
              ],
              [
                39.6814714,
                21.3485826
              ],
              [
                39.6803216,
                21.3502135
              ],
              [
                39.6774297,
                21.3504962
              ],
              [
                39.6771428,
                21.3510395
              ],
              [
                39.6759806,
                21.34996
              ],
              [
                39.6745377,
                21.3507789
              ],
              [
                39.6742434,
                21.3496959
              ],
              [
                39.6722182,
                21.349704
              ],
              [
                39.6701856,
                21.3480859
              ],
              [
                39.6687439,
                21.3491758
              ],
              [
                39.6620774,
                21.3464918
              ],
              [
                39.6617735,
                21.3432404
              ],
              [
                39.6577232,
                21.3432563
              ],
              [
                39.6562671,
                21.3410937
              ],
              [
                39.653949,
                21.3402896
              ],
              [
                39.6539454,
                21.3394764
              ],
              [
                39.6533668,
                21.3394787
              ],
              [
                39.6522156,
                21.3408384
              ],
              [
                39.6504798,
                21.3408451
              ],
              [
                39.6507763,
                21.3424702
              ],
              [
                39.6484606,
                21.3422082
              ],
              [
                39.6472987,
                21.3411284
              ],
              [
                39.6464379,
                21.342758
              ],
              [
                39.644127,
                21.34358
              ],
              [
                39.6435555,
                21.3452085
              ],
              [
                39.6418255,
                21.3465704
              ],
              [
                39.6401014,
                21.3492874
              ],
              [
                39.6389453,
                21.3495628
              ],
              [
                39.6383631,
                21.3487519
              ],
              [
                39.6369189,
                21.3492995
              ],
              [
                39.6366389,
                21.3514689
              ],
              [
                39.6360603,
                21.3514711
              ],
              [
                39.6366413,
                21.352011
              ],
              [
                39.6363578,
                21.3533673
              ],
              [
                39.6346206,
                21.3531028
              ],
              [
                39.633755,
                21.3536482
              ],
              [
                39.6334715,
                21.3550045
              ],
              [
                39.634924,
                21.3563542
              ],
              [
                39.633783,
                21.3601532
              ],
              [
                39.635239,
                21.362316
              ],
              [
                39.6343757,
                21.3634035
              ],
              [
                39.634672,
                21.3650286
              ],
              [
                39.6340991,
                21.366386
              ],
              [
                39.6309267,
                21.3688374
              ],
              [
                39.6306536,
                21.3726331
              ],
              [
                39.6315252,
                21.3734429
              ],
              [
                39.631531,
                21.3747981
              ],
              [
                39.6292207,
                21.375891
              ],
              [
                39.6289382,
                21.3775183
              ],
              [
                39.6295181,
                21.3777872
              ],
              [
                39.629818,
                21.3802255
              ],
              [
                39.6292473,
                21.3821249
              ],
              [
                39.6277981,
                21.3815883
              ],
              [
                39.6263442,
                21.3799674
              ],
              [
                39.6234539,
                21.3807913
              ],
              [
                39.6228717,
                21.3799804
              ],
              [
                39.6214259,
                21.3802568
              ],
              [
                39.6208449,
                21.3797168
              ],
              [
                39.6176742,
                21.38271
              ],
              [
                39.6185526,
                21.3851462
              ],
              [
                39.6197124,
                21.385684
              ],
              [
                39.6197181,
                21.3870392
              ],
              [
                39.616831,
                21.3886761
              ],
              [
                39.6159685,
                21.3900345
              ],
              [
                39.6142264,
                21.3886857
              ],
              [
                39.61307,
                21.388961
              ],
              [
                39.6122052,
                21.3897773
              ],
              [
                39.6125081,
                21.3930287
              ],
              [
                39.610185,
                21.3911398
              ],
              [
                39.6081603,
                21.3914182
              ],
              [
                39.6078664,
                21.3903351
              ],
              [
                39.6064216,
                21.3908824
              ],
              [
                39.6035209,
                21.3892666
              ],
              [
                39.6020739,
                21.3892718
              ],
              [
                39.5997709,
                21.3922616
              ],
              [
                39.5974578,
                21.3928119
              ],
              [
                39.5951404,
                21.3922781
              ],
              [
                39.5942776,
                21.3936364
              ],
              [
                39.5928306,
                21.3936415
              ],
              [
                39.5928371,
                21.3952678
              ],
              [
                39.5913912,
                21.3955439
              ],
              [
                39.5913944,
                21.396357
              ],
              [
                39.5899528,
                21.3977173
              ],
              [
                39.5905349,
                21.3985284
              ],
              [
                39.5873491,
                21.3979975
              ],
              [
                39.5864776,
                21.3971874
              ],
              [
                39.5864679,
                21.3947481
              ],
              [
                39.5844409,
                21.3944841
              ],
              [
                39.5812606,
                21.3953083
              ],
              [
                39.5795188,
                21.3939591
              ],
              [
                39.579239,
                21.3963995
              ],
              [
                39.5763512,
                21.3980357
              ],
              [
                39.5763576,
                21.3996619
              ],
              [
                39.5754914,
                21.400207
              ],
              [
                39.5746338,
                21.4029204
              ],
              [
                39.5723131,
                21.4015731
              ],
              [
                39.5682632,
                21.402129
              ],
              [
                39.5685673,
                21.4059226
              ],
              [
                39.5674106,
                21.4061976
              ],
              [
                39.5680031,
                21.4097192
              ],
              [
                39.5654075,
                21.4121674
              ],
              [
                39.5627994,
                21.411363
              ],
              [
                39.5627962,
                21.4105499
              ],
              [
                39.5590221,
                21.407581
              ],
              [
                39.5575739,
                21.4073148
              ],
              [
                39.5564182,
                21.4078607
              ],
              [
                39.5567107,
                21.4086729
              ],
              [
                39.555556,
                21.4094899
              ],
              [
                39.5555591,
                21.410303
              ],
              [
                39.5526687,
                21.4113967
              ],
              [
                39.5512317,
                21.4141119
              ],
              [
                39.549498,
                21.4149308
              ],
              [
                39.5497925,
                21.416285
              ],
              [
                39.5480609,
                21.4176459
              ],
              [
                39.5480659,
                21.4190012
              ],
              [
                39.5471965,
                21.4187329
              ],
              [
                39.5457532,
                21.4198218
              ],
              [
                39.544903,
                21.4247035
              ],
              [
                39.5434546,
                21.4244371
              ],
              [
                39.5425902,
                21.4255241
              ],
              [
                39.5402764,
                21.4260737
              ],
              [
                39.5405708,
                21.427428
              ],
              [
                39.5399959,
                21.428514
              ],
              [
                39.5405768,
                21.4290542
              ],
              [
                39.5397104,
                21.4295991
              ],
              [
                39.5397134,
                21.4304122
              ],
              [
                39.5408753,
                21.4314927
              ],
              [
                39.5426122,
                21.4314871
              ],
              [
                39.5449321,
                21.4325637
              ],
              [
                39.5469656,
                21.4344544
              ],
              [
                39.55015,
                21.434444
              ],
              [
                39.5504344,
                21.4330878
              ],
              [
                39.5515914,
                21.432813
              ],
              [
                39.551886,
                21.4341672
              ],
              [
                39.5530439,
                21.4341634
              ],
              [
                39.553629,
                21.4357877
              ],
              [
                39.5544985,
                21.4360559
              ],
              [
                39.5547973,
                21.4384943
              ],
              [
                39.5568299,
                21.4401139
              ],
              [
                39.5594385,
                21.4409183
              ],
              [
                39.5614744,
                21.4433509
              ],
              [
                39.5655286,
                21.4436083
              ],
              [
                39.5661118,
                21.4446905
              ],
              [
                39.5721873,
                21.4435857
              ],
              [
                39.5736401,
                21.4449359
              ],
              [
                39.574796,
                21.4443899
              ],
              [
                39.5753804,
                21.4457431
              ],
              [
                39.5765384,
                21.4457391
              ],
              [
                39.5765406,
                21.4462812
              ],
              [
                39.5814698,
                21.4481614
              ],
              [
                39.5823373,
                21.4478874
              ],
              [
                39.5837913,
                21.4495086
              ],
              [
                39.5861086,
                21.4497715
              ],
              [
                39.5872721,
                21.4511227
              ],
              [
                39.5884454,
                21.4549132
              ],
              [
                39.5904787,
                21.4565323
              ],
              [
                39.5925032,
                21.455983
              ],
              [
                39.592796,
                21.4567951
              ],
              [
                39.5954018,
                21.4567859
              ],
              [
                39.5971423,
                21.4575928
              ],
              [
                39.5971445,
                21.4581349
              ],
              [
                39.5985911,
                21.4578587
              ],
              [
                39.5991735,
                21.4586697
              ],
              [
                39.5997526,
                21.4586676
              ],
              [
                39.5997481,
                21.4575835
              ],
              [
                39.6012003,
                21.4586624
              ],
              [
                39.6078551,
                21.4575542
              ],
              [
                39.608148,
                21.4583663
              ],
              [
                39.6058362,
                21.4594589
              ],
              [
                39.6072884,
                21.4605378
              ],
              [
                39.6084454,
                21.4602625
              ],
              [
                39.6090279,
                21.4610735
              ],
              [
                39.6087507,
                21.464056
              ],
              [
                39.6107855,
                21.4659459
              ],
              [
                39.6107922,
                21.4675721
              ],
              [
                39.609927,
                21.4683884
              ],
              [
                39.6119629,
                21.4705493
              ],
              [
                39.6137059,
                21.4718982
              ],
              [
                39.6151526,
                21.4716218
              ],
              [
                39.615734,
                21.4721617
              ],
              [
                39.6163097,
                21.4713465
              ],
              [
                39.6166039,
                21.4724296
              ],
              [
                39.6186308,
                21.4724221
              ],
              [
                39.6206486,
                21.4702463
              ],
              [
                39.6209416,
                21.4710583
              ],
              [
                39.6221009,
                21.471325
              ],
              [
                39.6218194,
                21.4732234
              ],
              [
                39.6226881,
                21.4732202
              ],
              [
                39.6232742,
                21.4748442
              ],
              [
                39.6252977,
                21.4740235
              ],
              [
                39.627327,
                21.474558
              ],
              [
                39.6276316,
                21.4780804
              ],
              [
                39.6285027,
                21.4786192
              ],
              [
                39.6287992,
                21.4802444
              ],
              [
                39.6308251,
                21.4799657
              ],
              [
                39.6319916,
                21.4818586
              ],
              [
                39.6334419,
                21.4823952
              ],
              [
                39.6331605,
                21.4842935
              ],
              [
                39.6354772,
                21.4842848
              ],
              [
                39.6360611,
                21.4853667
              ],
              [
                39.638087,
                21.4850879
              ],
              [
                39.6380893,
                21.48563
              ],
              [
                39.6409864,
                21.48589
              ],
              [
                39.6430123,
                21.4856111
              ],
              [
                39.6435856,
                21.4842537
              ],
              [
                39.6459022,
                21.4842448
              ],
              [
                39.6456186,
                21.4856011
              ],
              [
                39.6467794,
                21.4861387
              ],
              [
                39.646783,
                21.4869518
              ],
              [
                39.6488101,
                21.4869439
              ],
              [
                39.64996,
                21.4850422
              ],
              [
                39.6519932,
                21.4863895
              ],
              [
                39.6537271,
                21.4855696
              ],
              [
                39.6548903,
                21.4866492
              ],
              [
                39.6563358,
                21.4861014
              ],
              [
                39.6572155,
                21.4885373
              ],
              [
                39.6577947,
                21.4885351
              ],
              [
                39.658077,
                21.4869077
              ],
              [
                39.6600992,
                21.4858156
              ],
              [
                39.6606735,
                21.4847291
              ],
              [
                39.662989,
                21.4844489
              ],
              [
                39.6647314,
                21.4855262
              ],
              [
                39.6647277,
                21.4847131
              ],
              [
                39.6661781,
                21.4852494
              ],
              [
                39.6661756,
                21.4847073
              ],
              [
                39.6684886,
                21.4838849
              ],
              [
                39.6702149,
                21.4814387
              ],
              [
                39.6710849,
                21.4817062
              ],
              [
                39.6722382,
                21.4806174
              ],
              [
                39.6725191,
                21.478719
              ],
              [
                39.6736736,
                21.4779012
              ],
              [
                39.6733766,
                21.4762762
              ],
              [
                39.6742391,
                21.4749175
              ],
              [
                39.6771372,
                21.4754479
              ],
              [
                39.6774293,
                21.4759888
              ],
              [
                39.6806145,
                21.4759758
              ],
              [
                39.6814794,
                21.4751592
              ],
              [
                39.6866878,
                21.4743248
              ],
              [
                39.6910466,
                21.4775593
              ],
              [
                39.6936553,
                21.4780906
              ],
              [
                39.6959821,
                21.4802492
              ],
              [
                39.6982858,
                21.4775292
              ],
              [
                39.7046602,
                21.4783156
              ],
              [
                39.7081455,
                21.4804692
              ],
              [
                39.7104608,
                21.4801883
              ],
              [
                39.7110307,
                21.4782886
              ],
              [
                39.7130551,
                21.4777379
              ],
              [
                39.7139159,
                21.476108
              ],
              [
                39.715365,
                21.4763728
              ],
              [
                39.717388,
                21.4755511
              ],
              [
                39.7185476,
                21.4758171
              ],
              [
                39.7185569,
                21.4777144
              ],
              [
                39.7194296,
                21.4785237
              ],
              [
                39.722899,
                21.4774246
              ],
              [
                39.7269516,
                21.477136
              ],
              [
                39.7272479,
                21.4784899
              ],
              [
                39.7284116,
                21.479569
              ],
              [
                39.7304224,
                21.4763077
              ],
              [
                39.7356332,
                21.4760139
              ],
              [
                39.7385151,
                21.4732908
              ],
              [
                39.7446013,
                21.4743479
              ],
              [
                39.7469137,
                21.4735245
              ],
              [
                39.7469095,
                21.4727114
              ],
              [
                39.7500919,
                21.4721551
              ],
              [
                39.7500946,
                21.4726972
              ],
              [
                39.7535707,
                21.4729526
              ],
              [
                39.7544477,
                21.4745748
              ],
              [
                39.755606,
                21.4745696
              ],
              [
                39.7561809,
                21.4737539
              ],
              [
                39.7576273,
                21.4734763
              ],
              [
                39.7573321,
                21.4723935
              ],
              [
                39.758198,
                21.4718475
              ],
              [
                39.7622588,
                21.4731842
              ],
              [
                39.7637009,
                21.4720935
              ],
              [
                39.7648591,
                21.4720882
              ],
              [
                39.7648563,
                21.4715461
              ],
              [
                39.7689043,
                21.4704434
              ],
              [
                39.7689086,
                21.4712565
              ],
              [
                39.7697787,
                21.4715236
              ],
              [
                39.7700825,
                21.4742325
              ],
              [
                39.7692181,
                21.4750496
              ],
              [
                39.7689385,
                21.4769481
              ],
              [
                39.7715531,
                21.4785623
              ],
              [
                39.7727114,
                21.478557
              ],
              [
                39.7735872,
                21.4799081
              ],
              [
                39.7756113,
                21.4793566
              ],
              [
                39.7791006,
                21.4820508
              ],
              [
                39.7811203,
                21.4806862
              ],
              [
                39.7805383,
                21.4801468
              ],
              [
                39.7808091,
                21.4766221
              ],
              [
                39.7816821,
                21.4774311
              ],
              [
                39.7857375,
                21.4776831
              ],
              [
                39.7868841,
                21.4755095
              ],
              [
                39.7880394,
                21.474962
              ],
              [
                39.7900677,
                21.4752234
              ],
              [
                39.7897723,
                21.4741407
              ],
              [
                39.7909232,
                21.4727801
              ],
              [
                39.7952739,
                21.4741146
              ],
              [
                39.7958368,
                21.4711305
              ],
              [
                39.7940834,
                21.4681575
              ],
              [
                39.7934837,
                21.4643658
              ],
              [
                39.7963717,
                21.4629969
              ],
              [
                39.7972403,
                21.4629928
              ],
              [
                39.7981163,
                21.4643438
              ],
              [
                39.8004237,
                21.4627065
              ],
              [
                39.8015878,
                21.4637851
              ],
              [
                39.8013101,
                21.4659547
              ],
              [
                39.8021817,
                21.4664926
              ],
              [
                39.8018981,
                21.4675781
              ],
              [
                39.8036413,
                21.4686539
              ],
              [
                39.8050875,
                21.4683759
              ],
              [
                39.805671,
                21.4691862
              ],
              [
                39.8100142,
                21.4691652
              ],
              [
                39.8120455,
                21.4699685
              ],
              [
                39.8137964,
                21.4723993
              ],
              [
                39.8152471,
                21.4729343
              ],
              [
                39.8152532,
                21.4740184
              ],
              [
                39.8175756,
                21.4750912
              ],
              [
                39.8173012,
                21.4778028
              ],
              [
                39.8184701,
                21.4796944
              ],
              [
                39.8181941,
                21.482135
              ],
              [
                39.8187763,
                21.4826742
              ],
              [
                39.8196405,
                21.4818569
              ],
              [
                39.8210883,
                21.4818498
              ],
              [
                39.8219646,
                21.4832006
              ],
              [
                39.8237051,
                21.4837341
              ],
              [
                39.8245799,
                21.484814
              ],
              [
                39.8309521,
                21.4850534
              ],
              [
                39.8356023,
                21.4880116
              ],
              [
                39.836471,
                21.4880073
              ],
              [
                39.8364912,
                21.4915306
              ],
              [
                39.838811,
                21.492061
              ],
              [
                39.839401,
                21.4939553
              ],
              [
                39.8397046,
                21.496393
              ],
              [
                39.8385509,
                21.4972119
              ],
              [
                39.8385587,
                21.4985671
              ],
              [
                39.8434819,
                21.4985423
              ],
              [
                39.8481327,
                21.5015001
              ],
              [
                39.8513153,
                21.5009418
              ],
              [
                39.8539343,
                21.5030967
              ],
              [
                39.8582785,
                21.5030744
              ],
              [
                39.8602898,
                21.5003538
              ],
              [
                39.8614514,
                21.5008898
              ],
              [
                39.8620274,
                21.5003448
              ],
              [
                39.8628978,
                21.5006114
              ],
              [
                39.8646434,
                21.5019575
              ],
              [
                39.8643602,
                21.5030431
              ],
              [
                39.8663971,
                21.5046587
              ],
              [
                39.8675556,
                21.5046527
              ],
              [
                39.8678516,
                21.5057353
              ],
              [
                39.8687221,
                21.5060018
              ],
              [
                39.8687301,
                21.5073569
              ],
              [
                39.8716667,
                21.5141173
              ],
              [
                39.8728316,
                21.5151954
              ],
              [
                39.8745678,
                21.5149152
              ],
              [
                39.8748607,
                21.5154558
              ],
              [
                39.8760176,
                21.5151787
              ],
              [
                39.8766017,
                21.5159887
              ],
              [
                39.8783395,
                21.5159796
              ],
              [
                39.8789367,
                21.5189577
              ],
              [
                39.8809691,
                21.5197601
              ],
              [
                39.8815385,
                21.5181309
              ],
              [
                39.8829867,
                21.5181233
              ],
              [
                39.8835611,
                21.5173071
              ],
              [
                39.885888,
                21.518921
              ],
              [
                39.8893637,
                21.5189025
              ],
              [
                39.8908234,
                21.5207919
              ],
              [
                39.8931455,
                21.5215926
              ],
              [
                39.8934484,
                21.5237592
              ],
              [
                39.8957739,
                21.5251019
              ],
              [
                39.8977914,
                21.5234649
              ],
              [
                39.9012672,
                21.5234461
              ],
              [
                39.9012739,
                21.5245302
              ],
              [
                39.9021445,
                21.5247965
              ],
              [
                39.9041972,
                21.5288508
              ],
              [
                39.9059267,
                21.5274863
              ],
              [
                39.907087,
                21.527751
              ],
              [
                39.9070769,
                21.5261249
              ],
              [
                39.9085268,
                21.5263881
              ],
              [
                39.9120229,
                21.5296213
              ],
              [
                39.9126226,
                21.5328704
              ],
              [
                39.9160951,
                21.5323093
              ],
              [
                39.9184175,
                21.5331096
              ],
              [
                39.9187004,
                21.5320239
              ],
              [
                39.9198539,
                21.5312045
              ],
              [
                39.9215953,
                21.5317369
              ],
              [
                39.9233264,
                21.5306433
              ],
              [
                39.9256453,
                21.5309014
              ],
              [
                39.9256419,
                21.5303594
              ],
              [
                39.9296867,
                21.5287108
              ],
              [
                39.9331643,
                21.5289624
              ],
              [
                39.9343299,
                21.53004
              ],
              [
                39.9369402,
                21.5305674
              ],
              [
                39.9375248,
                21.5313772
              ],
              [
                39.938392,
                21.5311013
              ],
              [
                39.9389591,
                21.5292009
              ],
              [
                39.938078,
                21.5273087
              ],
              [
                39.9406691,
                21.5248549
              ],
              [
                39.9400724,
                21.522148
              ],
              [
                39.9392,
                21.5216108
              ],
              [
                39.9391913,
                21.5202557
              ],
              [
                39.9383154,
                21.5191766
              ],
              [
                39.9385963,
                21.5178198
              ],
              [
                39.9368481,
                21.5162035
              ],
              [
                39.9368429,
                21.5153905
              ],
              [
                39.9310211,
                21.5108156
              ],
              [
                39.9310107,
                21.5091895
              ],
              [
                39.9269544,
                21.508941
              ],
              [
                39.9252218,
                21.5097637
              ],
              [
                39.9240582,
                21.5089571
              ],
              [
                39.9272234,
                21.5056872
              ],
              [
                39.9280698,
                21.5021591
              ],
              [
                39.9321173,
                21.5010525
              ],
              [
                39.9326879,
                21.4996942
              ],
              [
                39.9341307,
                21.498873
              ],
              [
                39.9358474,
                21.4956111
              ],
              [
                39.9340943,
                21.4931817
              ],
              [
                39.9314829,
                21.4923832
              ],
              [
                39.9308831,
                21.4891342
              ],
              [
                39.9300109,
                21.488597
              ],
              [
                39.9311589,
                21.4869644
              ],
              [
                39.9305677,
                21.4850705
              ],
              [
                39.9323068,
                21.4853319
              ],
              [
                39.9328807,
                21.4845156
              ],
              [
                39.9337494,
                21.4845107
              ],
              [
                39.9314191,
                21.4823555
              ],
              [
                39.9314105,
                21.4810004
              ],
              [
                39.933134,
                21.4788226
              ],
              [
                39.9342923,
                21.4788161
              ],
              [
                39.9337097,
                21.4782773
              ],
              [
                39.9339854,
                21.4761076
              ],
              [
                39.9322481,
                21.4761173
              ],
              [
                39.9310848,
                21.4753107
              ],
              [
                39.9281927,
                21.4758688
              ],
              [
                39.9273224,
                21.4756026
              ],
              [
                39.9264434,
                21.4739813
              ],
              [
                39.9232584,
                21.4739989
              ],
              [
                39.9218192,
                21.475362
              ],
              [
                39.9206576,
                21.4748263
              ],
              [
                39.9209335,
                21.4726566
              ],
              [
                39.9217988,
                21.4721098
              ],
              [
                39.9215007,
                21.4707563
              ],
              [
                39.9223693,
                21.4707515
              ],
              [
                39.9232311,
                21.4696626
              ],
              [
                39.9223557,
                21.4685833
              ],
              [
                39.9223454,
                21.4669572
              ],
              [
                39.9261059,
                21.4663944
              ],
              [
                39.9272537,
                21.4647618
              ],
              [
                39.9260836,
                21.4628711
              ],
              [
                39.9272366,
                21.4620517
              ],
              [
                39.9275175,
                21.460695
              ],
              [
                39.9266387,
                21.4590737
              ],
              [
                39.9251928,
                21.4593527
              ],
              [
                39.9246104,
                21.4588138
              ],
              [
                39.9243072,
                21.4566473
              ],
              [
                39.9254618,
                21.4560989
              ],
              [
                39.9251655,
                21.4550164
              ],
              [
                39.9269008,
                21.4547357
              ],
              [
                39.9283381,
                21.4531016
              ],
              [
                39.9295029,
                21.4541793
              ],
              [
                39.9303697,
                21.4539034
              ],
              [
                39.9329529,
                21.4503657
              ],
              [
                39.9352637,
                21.4495397
              ],
              [
                39.9349552,
                21.4465601
              ],
              [
                39.9358219,
                21.4462842
              ],
              [
                39.9358133,
                21.4449291
              ],
              [
                39.9366783,
                21.4443822
              ],
              [
                39.9366471,
                21.4395039
              ],
              [
                39.9343279,
                21.4389748
              ],
              [
                39.9320224,
                21.4406138
              ],
              [
                39.9297066,
                21.4406267
              ],
              [
                39.9276665,
                21.4384698
              ],
              [
                39.9267981,
                21.4384746
              ],
              [
                39.9259365,
                21.4395635
              ],
              [
                39.9239084,
                21.4393036
              ],
              [
                39.9221596,
                21.4374161
              ],
              [
                39.918405,
                21.4387919
              ],
              [
                39.9157811,
                21.4358249
              ],
              [
                39.914332,
                21.4355618
              ],
              [
                39.9114458,
                21.4369327
              ],
              [
                39.9073881,
                21.4361416
              ],
              [
                39.9059508,
                21.4377756
              ],
              [
                39.9056697,
                21.4391323
              ],
              [
                39.9048012,
                21.439137
              ],
              [
                39.9025037,
                21.4421307
              ],
              [
                39.900474,
                21.4415996
              ],
              [
                39.8993211,
                21.4424189
              ],
              [
                39.896987,
                21.43945
              ],
              [
                39.8981382,
                21.4383597
              ],
              [
                39.8972599,
                21.4367383
              ],
              [
                39.8978339,
                21.4359221
              ],
              [
                39.8972516,
                21.4353832
              ],
              [
                39.8949358,
                21.4353956
              ],
              [
                39.8943486,
                21.4340435
              ],
              [
                39.8926036,
                21.4326977
              ],
              [
                39.8925953,
                21.4313426
              ],
              [
                39.8908553,
                21.4308098
              ],
              [
                39.8902796,
                21.4313549
              ],
              [
                39.8870939,
                21.4311008
              ],
              [
                39.8859393,
                21.431649
              ],
              [
                39.885066,
                21.4308405
              ],
              [
                39.8836187,
                21.4308481
              ],
              [
                39.8807289,
                21.4316764
              ],
              [
                39.8801467,
                21.4311374
              ],
              [
                39.8789727,
                21.4284333
              ],
              [
                39.8798199,
                21.4249054
              ],
              [
                39.8760376,
                21.4216728
              ],
              [
                39.8760296,
                21.4203177
              ],
              [
                39.8728473,
                21.4206054
              ],
              [
                39.8719564,
                21.4168155
              ],
              [
                39.8659038,
                21.4211835
              ],
              [
                39.8661965,
                21.421724
              ],
              [
                39.8650451,
                21.4228141
              ],
              [
                39.8624384,
                21.4225565
              ],
              [
                39.8615749,
                21.4233741
              ],
              [
                39.8598397,
                21.423654
              ],
              [
                39.8592704,
                21.4252831
              ],
              [
                39.8569642,
                21.4269211
              ],
              [
                39.8543512,
                21.4255793
              ],
              [
                39.853766,
                21.4244982
              ],
              [
                39.8523187,
                21.4245055
              ],
              [
                39.8514551,
                21.425323
              ],
              [
                39.8485558,
                21.4245246
              ],
              [
                39.8433488,
                21.425093
              ],
              [
                39.8418953,
                21.4240162
              ],
              [
                39.8418766,
                21.4207639
              ],
              [
                39.8407173,
                21.4204986
              ],
              [
                39.8383893,
                21.418342
              ],
              [
                39.8369267,
                21.415639
              ],
              [
                39.8346097,
                21.4153795
              ],
              [
                39.8323095,
                21.4181013
              ],
              [
                39.8308654,
                21.4186506
              ],
              [
                39.8285468,
                21.41812
              ],
              [
                39.827683,
                21.4189373
              ],
              [
                39.824784,
                21.4181385
              ],
              [
                39.8242127,
                21.4194965
              ],
              [
                39.8227701,
                21.4203167
              ],
              [
                39.8190072,
                21.4203352
              ],
              [
                39.8184253,
                21.4197959
              ],
              [
                39.8175675,
                21.4216974
              ],
              [
                39.8187359,
                21.4235889
              ],
              [
                39.818745,
                21.4252151
              ],
              [
                39.8170067,
                21.4249525
              ],
              [
                39.815567,
                21.4263147
              ],
              [
                39.8141197,
                21.4263218
              ],
              [
                39.8138272,
                21.4257811
              ],
              [
                39.812092,
                21.4260606
              ],
              [
                39.8112161,
                21.4247096
              ],
              [
                39.8094809,
                21.4249891
              ],
              [
                39.8080291,
                21.424183
              ],
              [
                39.8048555,
                21.4260955
              ],
              [
                39.8048629,
                21.4274506
              ],
              [
                39.8025576,
                21.429359
              ],
              [
                39.8011088,
                21.4290949
              ],
              [
                39.8016744,
                21.4266528
              ],
              [
                39.7993616,
                21.4272059
              ],
              [
                39.7982038,
                21.4272115
              ],
              [
                39.7982008,
                21.4266694
              ],
              [
                39.7976249,
                21.4272142
              ],
              [
                39.7958866,
                21.4269515
              ],
              [
                39.7955913,
                21.4258687
              ],
              [
                39.7964567,
                21.4253225
              ],
              [
                39.7964508,
                21.4242384
              ],
              [
                39.7947082,
                21.4231625
              ],
              [
                39.7947009,
                21.4218074
              ],
              [
                39.7952783,
                21.4215336
              ],
              [
                39.7949757,
                21.4190957
              ],
              [
                39.7972854,
                21.4180006
              ],
              [
                39.799022,
                21.4179923
              ],
              [
                39.7990191,
                21.4174503
              ],
              [
                39.7984358,
                21.4166399
              ],
              [
                39.7958279,
                21.4161103
              ],
              [
                39.7952255,
                21.4117765
              ],
              [
                39.7934904,
                21.4120558
              ],
              [
                39.7929071,
                21.4112455
              ],
              [
                39.7908869,
                21.4123391
              ],
              [
                39.7879912,
                21.4120818
              ],
              [
                39.7885947,
                21.4166865
              ],
              [
                39.7859898,
                21.4166988
              ],
              [
                39.7836829,
                21.4183358
              ],
              [
                39.7816539,
                21.4178032
              ],
              [
                39.7810707,
                21.4169928
              ],
              [
                39.779334,
                21.4170009
              ],
              [
                39.7793311,
                21.4164588
              ],
              [
                39.7764367,
                21.4164723
              ],
              [
                39.7755641,
                21.4156632
              ],
              [
                39.7723817,
                21.415949
              ],
              [
                39.7717985,
                21.4151385
              ],
              [
                39.7680329,
                21.4146137
              ],
              [
                39.7634244,
                21.4189714
              ],
              [
                39.7631265,
                21.4173465
              ],
              [
                39.7657202,
                21.4151664
              ],
              [
                39.7657118,
                21.4135402
              ],
              [
                39.7648392,
                21.4127311
              ],
              [
                39.7651216,
                21.4113746
              ],
              [
                39.762223,
                21.4105747
              ],
              [
                39.7636603,
                21.4086709
              ]
            ],
            [
              [
                39.7813882,
                21.4766194
              ],
              [
                39.7810972,
                21.4763497
              ],
              [
                39.7813868,
                21.4763484
              ],
              [
                39.7813882,
                21.4766194
              ]
            ]
          ],
          [
            [
              [
                39.7636589,
                21.4083999
              ],
              [
                39.7639498,
                21.4086696
              ],
              [
                39.7639484,
                21.4083985
              ],
              [
                39.7636589,
                21.4083999
              ]
            ]
          ],
          [
            [
              [
                39.763947,
                21.4081275
              ],
              [
                39.7642378,
                21.4083972
              ],
              [
                39.7642364,
                21.4081262
              ],
              [
                39.763947,
                21.4081275
              ]
            ]
          ],
          [
            [
              [
                39.8244946,
                21.41814
              ],
              [
                39.8247825,
                21.4178675
              ],
              [
                39.8244931,
                21.4178689
              ],
              [
                39.8244946,
                21.41814
              ]
            ]
          ]
        ]
      }
    }
  ]
}
